[{"OBJECT_NAME":"STARLINK-3247","OBJECT_ID":"2021-115Z","EPOCH":"2026-03-09T10:27:44.033184","MEAN_MOTION":15.08838881,"ECCENTRICITY":0.00014683,"INCLINATION":53.2179,"RA_OF_ASC_NODE":150.2605,"ARG_OF_PERICENTER":97.1271,"MEAN_ANOMALY":262.9888,"EPHEMERIS_TYPE":0,"CLASSIFICATION_TYPE":"U","NORAD_CAT_ID":49747,"ELEMENT_SET_NO":999,"REV_AT_EPOCH":23549,"BSTAR":-6.0352922e-5,"MEAN_MOTION_DOT":-1.248e-5,"MEAN_MOTION_DDOT":0},{"OBJECT_NAME":"OBJECT G","OBJECT_ID":"2026-027G","EPOCH":"2026-03-09T21:53:37.288032","MEAN_MOTION":15.12145257,"ECCENTRICITY":0.00120269,"INCLINATION":97.4906,"RA_OF_ASC_NODE":197.8999,"ARG_OF_PERICENTER":227.3105,"MEAN_ANOMALY":132.7114,"EPHEMERIS_TYPE":0,"CLASSIFICATION_TYPE":"U","NORAD_CAT_ID":67752,"ELEMENT_SET_NO":999,"REV_AT_EPOCH":389,"BSTAR":0.00053594907,"MEAN_MOTION_DOT":9.195e-5,"MEAN_MOTION_DDOT":0}]
